{"type": "FeatureCollection", "features": [ {"type": "Feature", "properties": {"norad_id": 57401, "name": "TIANMU-1 09", "group": "weather", "lat": -16.489737132822405, "lon": 52.27792650743508, "alt_km": 483.765022935213, "timestamp": "2025-12-27T06:41:30.542510+00:00", "meta": {"OBJECT_NAME": "TIANMU-1 09", "OBJECT_ID": "2023-101C", "EPOCH": "2025-12-26T22:54:26.663328", "MEAN_MOTION": 15.28294344, "ECCENTRICITY": 0.00060847, "INCLINATION": 97.2803, "RA_OF_ASC_NODE": 49.7921, "ARG_OF_PERICENTER": 44.4978, "MEAN_ANOMALY": 315.6749, "EPHEMERIS_TYPE": 0, "CLASSIFICATION_TYPE": "U", "NORAD_CAT_ID": 57401, "ELEMENT_SET_NO": 999, "REV_AT_EPOCH": 13532, "BSTAR": 0.00033348626, "MEAN_MOTION_DOT": 9.125e-05, "MEAN_MOTION_DDOT": 0}, "tle": {"line1": "1 57401U 23101C   25360.95447527  .00009125  00000+0  33349-3 0  9994", "line2": "2 57401  97.2803  49.7921 0006084  44.4978 315.6749 15.28294344135325"}}, "geometry": {"type": "Point", "coordinates": [52.27792650743508, -16.489737132822405]}}, {"type": "Feature", "properties": {"norad_id": 57402, "name": "TIANMU-1 10", "group": "weather", "lat": 24.549687907179145, "lon": -125.67429159646096, "alt_km": 482.5869084520664, "timestamp": "2025-12-27T06:41:30.542522+00:00", "meta": {"OBJECT_NAME": "TIANMU-1 10", "OBJECT_ID": "2023-101D", "EPOCH": "2025-12-26T22:09:31.815360", "MEAN_MOTION": 15.28284792, "ECCENTRICITY": 0.00077835, "INCLINATION": 97.2883, "RA_OF_ASC_NODE": 50.6264, "ARG_OF_PERICENTER": 41.7754, "MEAN_ANOMALY": 318.4079, "EPHEMERIS_TYPE": 0, "CLASSIFICATION_TYPE": "U", "NORAD_CAT_ID": 57402, "ELEMENT_SET_NO": 999, "REV_AT_EPOCH": 13531, "BSTAR": 0.00029622313, "MEAN_MOTION_DOT": 8.097e-05, "MEAN_MOTION_DDOT": 0}, "tle": {"line1": "1 57402U 23101D   25360.92328490  .00008097  00000+0  29622-3 0  9995", "line2": "2 57402  97.2883  50.6264 0007783  41.7754 318.4079 15.28284792135316"}}, "geometry": {"type": "Point", "coordinates": [-125.67429159646096, 24.549687907179145]}}, {"type": "Feature", "properties": {"norad_id": 57490, "name": "FENGYUN 3F", "group": "weather", "lat": 22.8759019110647, "lon": -106.95674101088844, "alt_km": 824.7640465367222, "timestamp": "2025-12-27T06:41:30.542541+00:00", "meta": {"OBJECT_NAME": "FENGYUN 3F", "OBJECT_ID": "2023-111A", "EPOCH": "2025-12-26T23:11:28.503168", "MEAN_MOTION": 14.19897337, "ECCENTRICITY": 8.677e-05, "INCLINATION": 98.7064, "RA_OF_ASC_NODE": 69.029, "ARG_OF_PERICENTER": 117.9674, "MEAN_ANOMALY": 242.159, "EPHEMERIS_TYPE": 0, "CLASSIFICATION_TYPE": "U", "NORAD_CAT_ID": 57490, "ELEMENT_SET_NO": 999, "REV_AT_EPOCH": 12442, "BSTAR": 6.0140058e-05, "MEAN_MOTION_DOT": 8.4e-07, "MEAN_MOTION_DDOT": 0}, "tle": {"line1": "1 57490U 23111A   25360.96630212  .00000084  00000+0  60140-4 0  9994", "line2": "2 57490  98.7064  69.0290 0000867 117.9674 242.1590 14.19897337124421"}}, "geometry": {"type": "Point", "coordinates": [-106.95674101088844, 22.8759019110647]}}, {"type": "Feature", "properties": {"norad_id": 58584, "name": "ARKTIKA-M 2", "group": "weather", "lat": -10.263474797789216, "lon": 168.05148617635757, "alt_km": 6235.912198380042, "timestamp": "2025-12-27T06:41:30.542564+00:00", "meta": {"OBJECT_NAME": "ARKTIKA-M 2", "OBJECT_ID": "2023-198A", "EPOCH": "2025-12-25T18:56:09.299328", "MEAN_MOTION": 2.00602256, "ECCENTRICITY": 0.686608, "INCLINATION": 63.2255, "RA_OF_ASC_NODE": 173.4714, "ARG_OF_PERICENTER": 268.0516, "MEAN_ANOMALY": 18.8422, "EPHEMERIS_TYPE": 0, "CLASSIFICATION_TYPE": "U", "NORAD_CAT_ID": 58584, "ELEMENT_SET_NO": 999, "REV_AT_EPOCH": 1484, "BSTAR": 0, "MEAN_MOTION_DOT": 2.31e-06, "MEAN_MOTION_DDOT": 0}, "tle": {"line1": "1 58584U 23198A   25359.78899652  .00000231  00000+0  00000+0 0  9995", "line2": "2 58584  63.2255 173.4714 6866080 268.0516  18.8422  2.00602256 14849"}}, "geometry": {"type": "Point", "coordinates": [168.05148617635757, -10.263474797789216]}}, {"type": "Feature", "properties": {"norad_id": 58645, "name": "TIANMU-1 11", "group": "weather", "lat": 28.105188892532794, "lon": -155.39461375133828, "alt_km": 490.9172203402759, "timestamp": "2025-12-27T06:41:30.542579+00:00", "meta": {"OBJECT_NAME": "TIANMU-1 11", "OBJECT_ID": "2023-205A", "EPOCH": "2025-12-26T23:43:42.929184", "MEAN_MOTION": 15.2477347, "ECCENTRICITY": 0.00075959, "INCLINATION": 97.3601, "RA_OF_ASC_NODE": 20.3618, "ARG_OF_PERICENTER": 249.2065, "MEAN_ANOMALY": 110.8359, "EPHEMERIS_TYPE": 0, "CLASSIFICATION_TYPE": "U", "NORAD_CAT_ID": 58645, "ELEMENT_SET_NO": 999, "REV_AT_EPOCH": 11126, "BSTAR": 0.00029498702, "MEAN_MOTION_DOT": 7.247e-05, "MEAN_MOTION_DDOT": 0}, "tle": {"line1": "1 58645U 23205A   25360.98869131  .00007247  00000+0  29499-3 0  9996", "line2": "2 58645  97.3601  20.3618 0007595 249.2065 110.8359 15.24773470111268"}}, "geometry": {"type": "Point", "coordinates": [-155.39461375133828, 28.105188892532794]}}, {"type": "Feature", "properties": {"norad_id": 58646, "name": "TIANMU-1 12", "group": "weather", "lat": -2.2261300199980227, "lon": 20.735436913323642, "alt_km": 497.97954828693764, "timestamp": "2025-12-27T06:41:30.542589+00:00", "meta": {"OBJECT_NAME": "TIANMU-1 12", "OBJECT_ID": "2023-205B", "EPOCH": "2025-12-27T00:24:04.036896", "MEAN_MOTION": 15.24660937, "ECCENTRICITY": 0.00061177, "INCLINATION": 97.3588, "RA_OF_ASC_NODE": 20.1901, "ARG_OF_PERICENTER": 226.9302, "MEAN_ANOMALY": 133.1424, "EPHEMERIS_TYPE": 0, "CLASSIFICATION_TYPE": "U", "NORAD_CAT_ID": 58646, "ELEMENT_SET_NO": 999, "REV_AT_EPOCH": 11125, "BSTAR": 0.00031309236, "MEAN_MOTION_DOT": 7.668e-05, "MEAN_MOTION_DDOT": 0}, "tle": {"line1": "1 58646U 23205B   25361.01671339  .00007668  00000+0  31309-3 0  9993", "line2": "2 58646  97.3588  20.1901 0006117 226.9302 133.1424 15.24660937111254"}}, "geometry": {"type": "Point", "coordinates": [20.735436913323642, -2.2261300199980227]}}, {"type": "Feature", "properties": {"norad_id": 58647, "name": "TIANMU-1 13", "group": "weather", "lat": 3.801199694939553, "lon": -158.85308256319604, "alt_km": 490.1208481935346, "timestamp": "2025-12-27T06:41:30.542599+00:00", "meta": {"OBJECT_NAME": "TIANMU-1 13", "OBJECT_ID": "2023-205C", "EPOCH": "2025-12-26T23:37:17.301792", "MEAN_MOTION": 15.24704591, "ECCENTRICITY": 0.00068353, "INCLINATION": 97.3617, "RA_OF_ASC_NODE": 20.3652, "ARG_OF_PERICENTER": 205.6292, "MEAN_ANOMALY": 154.4608, "EPHEMERIS_TYPE": 0, "CLASSIFICATION_TYPE": "U", "NORAD_CAT_ID": 58647, "ELEMENT_SET_NO": 999, "REV_AT_EPOCH": 11124, "BSTAR": 0.00030493198, "MEAN_MOTION_DOT": 7.477e-05, "MEAN_MOTION_DDOT": 0}, "tle": {"line1": "1 58647U 23205C   25360.98422803  .00007477  00000+0  30493-3 0  9990", "line2": "2 58647  97.3617  20.3652 0006835 205.6292 154.4608 15.24704591111246"}}, "geometry": {"type": "Point", "coordinates": [-158.85308256319604, 3.801199694939553]}}, {"type": "Feature", "properties": {"norad_id": 58648, "name": "TIANMU-1 14", "group": "weather", "lat": -81.77612342495054, "lon": 136.64545029553898, "alt_km": 496.1696776716444, "timestamp": "2025-12-27T06:41:30.542609+00:00", "meta": {"OBJECT_NAME": "TIANMU-1 14", "OBJECT_ID": "2023-205D", "EPOCH": "2025-12-26T23:13:36.713856", "MEAN_MOTION": 15.24686387, "ECCENTRICITY": 0.00074953, "INCLINATION": 97.3549, "RA_OF_ASC_NODE": 19.6847, "ARG_OF_PERICENTER": 211.8418, "MEAN_ANOMALY": 148.2367, "EPHEMERIS_TYPE": 0, "CLASSIFICATION_TYPE": "U", "NORAD_CAT_ID": 58648, "ELEMENT_SET_NO": 999, "REV_AT_EPOCH": 11124, "BSTAR": 0.0002921212, "MEAN_MOTION_DOT": 7.157e-05, "MEAN_MOTION_DDOT": 0}, "tle": {"line1": "1 58648U 23205D   25360.96778604  .00007157  00000+0  29212-3 0  9994", "line2": "2 58648  97.3549  19.6847 0007495 211.8418 148.2367 15.24686387111245"}}, "geometry": {"type": "Point", "coordinates": [136.64545029553898, -81.77612342495054]}}, {"type": "Feature", "properties": {"norad_id": 58660, "name": "TIANMU-1 19", "group": "weather", "lat": -21.843184402398105, "lon": 115.29111211221066, "alt_km": 489.6582392089331, "timestamp": "2025-12-27T06:41:30.542619+00:00", "meta": {"OBJECT_NAME": "TIANMU-1 19", "OBJECT_ID": "2023-208A", "EPOCH": "2025-12-26T22:55:48.969696", "MEAN_MOTION": 15.28112761, "ECCENTRICITY": 0.000492, "INCLINATION": 97.4384, "RA_OF_ASC_NODE": 111.9663, "ARG_OF_PERICENTER": 193.6334, "MEAN_ANOMALY": 166.4773, "EPHEMERIS_TYPE": 0, "CLASSIFICATION_TYPE": "U", "NORAD_CAT_ID": 58660, "ELEMENT_SET_NO": 999, "REV_AT_EPOCH": 11099, "BSTAR": 0.00040306204, "MEAN_MOTION_DOT": 0.00010982, "MEAN_MOTION_DDOT": 0}, "tle": {"line1": "1 58660U 23208A   25360.95542789  .00010982  00000+0  40306-3 0  9990", "line2": "2 58660  97.4384 111.9663 0004920 193.6334 166.4773 15.28112761110991"}}, "geometry": {"type": "Point", "coordinates": [115.29111211221066, -21.843184402398105]}}, {"type": "Feature", "properties": {"norad_id": 58661, "name": "TIANMU-1 20", "group": "weather", "lat": 64.5056653745093, "lon": -51.36107991237665, "alt_km": 471.79363582894166, "timestamp": "2025-12-27T06:41:30.542630+00:00", "meta": {"OBJECT_NAME": "TIANMU-1 20", "OBJECT_ID": "2023-208B", "EPOCH": "2025-12-26T22:20:27.751200", "MEAN_MOTION": 15.29302593, "ECCENTRICITY": 0.00069337, "INCLINATION": 97.4322, "RA_OF_ASC_NODE": 112.4035, "ARG_OF_PERICENTER": 207.8977, "MEAN_ANOMALY": 152.1892, "EPHEMERIS_TYPE": 0, "CLASSIFICATION_TYPE": "U", "NORAD_CAT_ID": 58661, "ELEMENT_SET_NO": 999, "REV_AT_EPOCH": 11106, "BSTAR": 0.00040414208, "MEAN_MOTION_DOT": 0.00011425, "MEAN_MOTION_DDOT": 0}, "tle": {"line1": "1 58661U 23208B   25360.93087675  .00011425  00000+0  40414-3 0  9990", "line2": "2 58661  97.4322 112.4035 0006933 207.8977 152.1892 15.29302593111068"}}, "geometry": {"type": "Point", "coordinates": [-51.36107991237665, 64.5056653745093]}}]}